OBJECT_NAME,OBJECT_ID,EPOCH,MEAN_MOTION,ECCENTRICITY,INCLINATION,RA_OF_ASC_NODE,ARG_OF_PERICENTER,MEAN_ANOMALY,EPHEMERIS_TYPE,CLASSIFICATION_TYPE,NORAD_CAT_ID,ELEMENT_SET_NO,REV_AT_EPOCH,BSTAR,MEAN_MOTION_DOT,MEAN_MOTION_DDOT
FENGYUN 3D,2017-072A,2026-06-05T19:13:18.635232,14.19736316,.000267,99.0126,131.0182,79.8422,280.3054,0,U,43010,999,44337,-.31354E-4,-.113E-5,0
NOAA 20 (JPSS-1),2017-073A,2026-06-05T19:03:20.958048,14.19509576,.0000577,98.7769,96.3581,38.0470,322.0746,0,U,43013,999,44285,.57019E-4,.76E-6,0
GOES 17,2018-022A,2026-06-05T14:48:10.006272,1.00271340,.0000728,0.9078,85.9257,9.2393,291.4339,0,U,43226,999,3030,0,-.17E-5,0
SENTINEL-3B,2018-039A,2026-06-05T11:28:20.737056,14.26738325,.0000937,98.6250,224.1778,75.1452,284.9833,0,U,43437,999,42245,.68428E-4,.122E-5,0
FENGYUN 2H,2018-050A,2026-06-05T21:51:38.978784,1.00271798,.0001439,3.0021,79.2040,126.4973,96.0043,0,U,43491,999,2932,0,-.118E-5,0
METOP-C,2018-087A,2026-06-05T19:20:42.814176,14.21509114,.0001325,98.6648,216.6172,142.0075,218.1196,0,U,43689,999,39321,.77369E-4,.126E-5,0
GEO-KOMPSAT-2A,2018-100A,2026-06-05T19:15:33.431328,1.00272573,.0002452,0.0496,136.3594,305.6736,229.3518,0,U,43823,999,2751,0,-.331E-5,0
METEOR-M2 2,2019-038A,2026-06-05T20:45:17.277120,14.24363506,.000236,98.9145,143.9836,64.5605,295.5817,0,U,44387,999,35968,.14334E-3,.286E-5,0
ARKTIKA-M 1,2021-016A,2026-06-02T00:56:25.095840,2.00628509,.72832396,63.2379,59.8266,269.8643,14.6915,0,U,47719,999,3848,0,-.2E-5,0
FENGYUN 3E,2021-062A,2026-06-05T20:33:23.015232,14.19902958,.0002687,98.7492,160.3911,103.9328,256.2147,0,U,49008,999,25497,.3806E-4,.37E-6,0
GOES 18,2022-021A,2026-06-05T17:59:58.981344,1.00272064,.0000611,0.0408,133.9267,351.5599,261.6872,0,U,51850,999,647,0,.109E-5,0
NOAA 21 (JPSS-2),2022-150A,2026-06-05T18:09:49.754304,14.19563400,.0001015,98.7057,95.7381,183.2369,176.8801,0,U,54234,999,18492,.5315E-4,.69E-6,0
METEOSAT-12 (MTG-I1),2022-170C,2026-06-05T18:38:55.766112,1.00271518,.0003527,0.7255,21.0068,69.9576,82.5488,0,U,54743,999,1286,0,.4E-7,0
TIANMU-1 03,2023-039A,2026-06-05T20:39:36.584640,15.46951348,.0004029,97.5236,330.3897,126.7554,233.4066,0,U,55973,999,17908,.34324E-3,.17224E-3,0
TIANMU-1 04,2023-039B,2026-06-05T20:30:41.701248,15.47537236,.000472,97.5172,329.5364,124.5436,235.6259,0,U,55974,999,17909,.35368E-3,.18118E-3,0
TIANMU-1 05,2023-039C,2026-06-05T20:11:07.901088,15.46878840,.0003664,97.5218,329.9883,142.4136,217.7370,0,U,55975,999,17906,.34446E-3,.17241E-3,0
TIANMU-1 06,2023-039D,2026-06-05T20:34:34.224384,15.47445669,.0003945,97.5224,330.6296,138.2174,221.9377,0,U,55976,999,17909,.35054E-3,.17897E-3,0
FENGYUN 3G,2023-055A,2026-06-05T20:19:11.502624,15.54281662,.0005563,49.9932,44.4887,151.6127,208.5144,0,U,56232,999,17824,.4511E-3,.29725E-3,0
METEOR-M2 3,2023-091A,2026-06-05T20:33:21.593952,14.24045844,.0003695,98.6086,212.0661,186.2105,173.9029,0,U,57166,999,15290,.20643E-4,.4E-7,0
TIANMU-1 07,2023-101A,2026-06-05T20:22:45.014304,15.29672244,.0003368,97.2594,207.7787,145.6713,214.4746,0,U,57399,999,15991,.24935E-3,.7096E-4,0
TIANMU-1 08,2023-101B,2026-06-05T19:34:45.649632,15.29677134,.0004973,97.2582,207.5184,143.1758,216.9826,0,U,57400,999,15990,.26484E-3,.7544E-4,0
TIANMU-1 09,2023-101C,2026-06-05T20:45:23.034816,15.29704752,.0003743,97.2539,206.9879,153.8237,206.3193,0,U,57401,999,15991,.26025E-3,.7417E-4,0
TIANMU-1 10,2023-101D,2026-06-05T19:58:28.506432,15.29674704,.000533,97.2620,207.9951,156.8065,203.3417,0,U,57402,999,15990,.25823E-3,.7354E-4,0
FENGYUN 3F,2023-111A,2026-06-05T20:10:36.091200,14.19937151,.0001563,98.6837,227.0605,101.4447,258.6906,0,U,57490,999,14725,.44955E-4,.52E-6,0
ARKTIKA-M 2,2023-198A,2026-06-03T07:17:21.587712,2.00591941,.68985494,63.2209,155.9142,267.4684,18.7857,0,U,58584,999,1804,0,.15E-5,0
TIANMU-1 11,2023-205A,2026-06-05T20:20:16.351872,15.26874137,.0010181,97.3450,178.5833,53.2100,307.0071,0,U,58645,999,13579,.24522E-3,.641E-4,0
TIANMU-1 12,2023-205B,2026-06-05T21:11:34.197216,15.26835369,.0008107,97.3440,178.3763,40.9056,319.2790,0,U,58646,999,13578,.2552E-3,.6663E-4,0
TIANMU-1 13,2023-205C,2026-06-05T20:21:58.653792,15.26690091,.0007296,97.3466,178.6133,22.4253,337.7303,0,U,58647,999,13577,.25316E-3,.6578E-4,0
TIANMU-1 14,2023-205D,2026-06-05T20:01:09.097248,15.26734443,.0008267,97.3404,177.7898,25.9360,334.2292,0,U,58648,999,13577,.24409E-3,.635E-4,0
TIANMU-1 19,2023-208A,2026-06-05T20:28:04.208736,15.31397431,.0004808,97.4494,273.0972,13.6797,346.4573,0,U,58660,999,13559,.31136E-3,.9368E-4,0
TIANMU-1 20,2023-208B,2026-06-05T20:01:09.619968,15.32588371,.0007058,97.4437,273.7019,16.6455,343.5017,0,U,58661,999,13568,.28729E-3,.8969E-4,0
