FENGYUN 3D              
1 43010U 17072A   26156.80091013 -.00000113  00000+0 -31354-4 0  9993
2 43010  99.0126 131.0182 0002670  79.8422 280.3054 14.19736316443374
NOAA 20 (JPSS-1)        
1 43013U 17073A   26156.79399257  .00000076  00000+0  57019-4 0  9998
2 43013  98.7769  96.3581 0000577  38.0470 322.0746 14.19509576442856
GOES 17                 
1 43226U 18022A   26156.61678248 -.00000170  00000+0  00000+0 0  9999
2 43226   0.9078  85.9257 0000728   9.2393 291.4339  1.00271340 30307
SENTINEL-3B             
1 43437U 18039A   26156.47801779  .00000122  00000+0  68428-4 0  9991
2 43437  98.6250 224.1778 0000937  75.1452 284.9833 14.26738325422452
FENGYUN 2H              
1 43491U 18050A   26156.91086781 -.00000118  00000+0  00000+0 0  9994
2 43491   3.0021  79.2040 0001439 126.4973  96.0043  1.00271798 29323
METOP-C                 
1 43689U 18087A   26156.80605109  .00000126  00000+0  77369-4 0  9997
2 43689  98.6648 216.6172 0001325 142.0075 218.1196 14.21509114393212
GEO-KOMPSAT-2A          
1 43823U 18100A   26156.80247027 -.00000331  00000+0  00000+0 0  9996
2 43823   0.0496 136.3594 0002452 305.6736 229.3518  1.00272573 27517
METEOR-M2 2             
1 44387U 19038A   26156.86478330  .00000286  00000+0  14334-3 0  9999
2 44387  98.9145 143.9836 0002360  64.5605 295.5817 14.24363506359687
ARKTIKA-M 1             
1 47719U 21016A   26153.03917935 -.00000200  00000+0  00000+0 0  9993
2 47719  63.2379  59.8266 7283239 269.8643  14.6915  2.00628509 38489
FENGYUN 3E              
1 49008U 21062A   26156.85651638  .00000037  00000+0  38060-4 0  9994
2 49008  98.7492 160.3911 0002687 103.9328 256.2147 14.19902958254974
GOES 18                 
1 51850U 22021A   26156.74998821  .00000109  00000+0  00000+0 0  9992
2 51850   0.0408 133.9267 0000611 351.5599 261.6872  1.00272064  6470
NOAA 21 (JPSS-2)        
1 54234U 22150A   26156.75682586  .00000069  00000+0  53150-4 0  9997
2 54234  98.7057  95.7381 0001015 183.2369 176.8801 14.19563400184926
METEOSAT-12 (MTG-I1)    
1 54743U 22170C   26156.77703433  .00000004  00000+0  00000+0 0  9991
2 54743   0.7255  21.0068 0003527  69.9576  82.5488  1.00271518 12867
TIANMU-1 03             
1 55973U 23039A   26156.86084010  .00017224  00000+0  34324-3 0  9997
2 55973  97.5236 330.3897 0004029 126.7554 233.4066 15.46951348179086
TIANMU-1 04             
1 55974U 23039B   26156.85464932  .00018118  00000+0  35368-3 0  9994
2 55974  97.5172 329.5364 0004720 124.5436 235.6259 15.47537236179094
TIANMU-1 05             
1 55975U 23039C   26156.84106367  .00017241  00000+0  34446-3 0  9991
2 55975  97.5218 329.9883 0003664 142.4136 217.7370 15.46878840179068
TIANMU-1 06             
1 55976U 23039D   26156.85734056  .00017897  00000+0  35054-3 0  9998
2 55976  97.5224 330.6296 0003945 138.2174 221.9377 15.47445669179097
FENGYUN 3G              
1 56232U 23055A   26156.84666091  .00029725  00000+0  45110-3 0  9991
2 56232  49.9932  44.4887 0005563 151.6127 208.5144 15.54281662178249
METEOR-M2 3             
1 57166U 23091A   26156.85649993  .00000004  00000+0  20643-4 0  9995
2 57166  98.6086 212.0661 0003695 186.2105 173.9029 14.24045844152902
TIANMU-1 07             
1 57399U 23101A   26156.84913211  .00007096  00000+0  24935-3 0  9996
2 57399  97.2594 207.7787 0003368 145.6713 214.4746 15.29672244159911
TIANMU-1 08             
1 57400U 23101B   26156.81580613  .00007544  00000+0  26484-3 0  9991
2 57400  97.2582 207.5184 0004973 143.1758 216.9826 15.29677134159903
TIANMU-1 09             
1 57401U 23101C   26156.86484994  .00007417  00000+0  26025-3 0  9992
2 57401  97.2539 206.9879 0003743 153.8237 206.3193 15.29704752159912
TIANMU-1 10             
1 57402U 23101D   26156.83227438  .00007354  00000+0  25823-3 0  9993
2 57402  97.2620 207.9951 0005330 156.8065 203.3417 15.29674704159900
FENGYUN 3F              
1 57490U 23111A   26156.84069550  .00000052  00000+0  44955-4 0  9997
2 57490  98.6837 227.0605 0001563 101.4447 258.6906 14.19937151147252
ARKTIKA-M 2             
1 58584U 23198A   26154.30372208  .00000150  00000+0  00000+0 0  9990
2 58584  63.2209 155.9142 6898549 267.4684  18.7857  2.00591941 18047
TIANMU-1 11             
1 58645U 23205A   26156.84741148  .00006410  00000+0  24522-3 0  9995
2 58645  97.3450 178.5833 0010181  53.2100 307.0071 15.26874137135792
TIANMU-1 12             
1 58646U 23205B   26156.88303469  .00006663  00000+0  25520-3 0  9999
2 58646  97.3440 178.3763 0008107  40.9056 319.2790 15.26835369135786
TIANMU-1 13             
1 58647U 23205C   26156.84859553  .00006578  00000+0  25316-3 0  9994
2 58647  97.3466 178.6133 0007296  22.4253 337.7303 15.26690091135776
TIANMU-1 14             
1 58648U 23205D   26156.83413307  .00006350  00000+0  24409-3 0  9997
2 58648  97.3404 177.7898 0008267  25.9360 334.2292 15.26734443135772
TIANMU-1 19             
1 58660U 23208A   26156.85282649  .00009368  00000+0  31136-3 0  9996
2 58660  97.4494 273.0972 0004808  13.6797 346.4573 15.31397431135599
TIANMU-1 20             
1 58661U 23208B   26156.83413912  .00008969  00000+0  28729-3 0  9994
2 58661  97.4437 273.7019 0007058  16.6455 343.5017 15.32588371135687
